[{"OBJECT_NAME":"STARLINK-31120","OBJECT_ID":"2024-011P","EPOCH":"2026-03-09T05:19:27.537600","MEAN_MOTION":15.30163282,"ECCENTRICITY":8.97e-5,"INCLINATION":53.162,"RA_OF_ASC_NODE":16.1945,"ARG_OF_PERICENTER":88.4258,"MEAN_ANOMALY":271.6845,"EPHEMERIS_TYPE":0,"CLASSIFICATION_TYPE":"U","NORAD_CAT_ID":58778,"ELEMENT_SET_NO":999,"REV_AT_EPOCH":12019,"BSTAR":-0.00011781765,"MEAN_MOTION_DOT":-3.842e-5,"MEAN_MOTION_DDOT":0},{"OBJECT_NAME":"ARIANE 40 R\/B","OBJECT_ID":"1999-064C","EPOCH":"2026-03-09T18:24:37.025280","MEAN_MOTION":15.31364882,"ECCENTRICITY":0.00050095,"INCLINATION":98.1631,"RA_OF_ASC_NODE":150.8872,"ARG_OF_PERICENTER":91.4057,"MEAN_ANOMALY":268.7755,"EPHEMERIS_TYPE":0,"CLASSIFICATION_TYPE":"U","NORAD_CAT_ID":25979,"ELEMENT_SET_NO":999,"REV_AT_EPOCH":42869,"BSTAR":0.00066758353,"MEAN_MOTION_DOT":0.00020173,"MEAN_MOTION_DDOT":0}]
